     2.10           G: GLONASS NAV DATA                     RINEX VERSION / TYPE
teqc  2015Jun23                         20220426 01:25:40UTCPGM / RUN BY / DATE
Linux 2.4.21-27.ELsmp|Opteron|gcc -static|Linux x86_64|=+   COMMENT
  2022     4    15   -4.656612873077D-10                    CORR TO SYSTEM TIME
                                                            END OF HEADER
18 22  4 16  4 45  0.0 1.137135550380D-04 9.094947017729D-13 1.620000000000D+04
   -8.977221191406D+03 1.027679443359D-01-0.000000000000D+00 0.000000000000D+00
    1.272372363281D+04-2.769451141357D+00 4.656612873077D-09-3.000000000000D+00
    2.019508251953D+04 1.796789169312D+00-1.862645149231D-09 0.000000000000D+00
19 22  4 16  4 45  0.0-1.855436712503D-04-9.094947017729D-13 1.620000000000D+04
   -4.086300781250D+03 2.650814056396D-01-9.313225746155D-10 0.000000000000D+00
    2.383305712891D+04-1.108481407166D+00 5.587935447693D-09 3.000000000000D+00
    8.113115722656D+03 3.388623237610D+00-0.000000000000D+00 0.000000000000D+00
20 22  4 16  4 45  0.0-6.871577352285D-05-9.094947017729D-13 1.620000000000D+04
    4.855694335938D+03 1.818847656250D-01-1.862645149231D-09 0.000000000000D+00
    2.191518847656D+04 1.662459373474D+00 3.725290298462D-09 2.000000000000D+00
   -1.206587353516D+04 3.095810890198D+00 1.862645149231D-09 0.000000000000D+00
15 22  4 16  5 15  0.0 9.679701179266D-05-0.000000000000D+00 1.800000000000D+04
   -2.093425976562D+04 6.640253067017D-01 1.862645149231D-09 0.000000000000D+00
    1.355291162109D+04-3.456459045410D-01 3.725290298462D-09 0.000000000000D+00
   -5.344927246094D+03-3.467146873474D+00 9.313225746155D-10 0.000000000000D+00
 5 22  4 16  5 15  0.0 9.123980998993D-05 0.000000000000D+00 1.800000000000D+04
   -4.037651367188D+03-2.940682411194D+00 0.000000000000D+00 0.000000000000D+00
    1.001992871094D+04-1.177068710327D+00 1.862645149231D-09 1.000000000000D+00
   -2.309025585938D+04 1.509666442871D-03 2.793967723846D-09 0.000000000000D+00
19 22  4 16  5 15  0.0-1.855464652181D-04-9.094947017729D-13 1.800000000000D+04
   -3.817238769531D+03-2.735137939453D-03-0.000000000000D+00 0.000000000000D+00
    2.109364160156D+04-1.908145904541D+00 5.587935447693D-09 3.000000000000D+00
    1.382002197266D+04 2.911192893982D+00-0.000000000000D+00 0.000000000000D+00
20 22  4 16  5 15  0.0-6.871763616800D-05-9.094947017729D-13 1.800000000000D+04
    5.358833984375D+03 3.367376327515D-01-9.313225746155D-10 0.000000000000D+00
    2.415475732422D+04 8.064670562744D-01 5.587935447693D-09 2.000000000000D+00
   -6.097771484375D+03 3.492239952087D+00 9.313225746155D-10 0.000000000000D+00
 9 22  4 16  5 15  0.0 5.004741251469D-05 1.818989403546D-12 1.872000000000D+04
    2.827337890625D+03-2.334132194519D+00-9.313225746155D-10 0.000000000000D+00
    1.199855224609D+04 1.968732833862D+00 3.725290298462D-09-2.000000000000D+00
    2.233602001953D+04-7.693662643433D-01-1.862645149231D-09 0.000000000000D+00
15 22  4 16  5 45  0.0 9.679608047009D-05-0.000000000000D+00 1.980000000000D+04
   -1.925279003906D+04 1.164815902710D+00 1.862645149231D-09 0.000000000000D+00
    1.232821533203D+04-1.030251502991D+00 2.793967723846D-09 0.000000000000D+00
   -1.129832714844D+04-3.104735374451D+00 1.862645149231D-09 0.000000000000D+00
 5 22  4 16  5 45  0.0 9.123980998993D-05 9.094947017729D-13 1.980000000000D+04
   -9.396323730469D+03-2.962401390076D+00 9.313225746155D-10 0.000000000000D+00
    8.319004394531D+03-7.022886276245D-01 9.313225746155D-10 1.000000000000D+00
   -2.219359765625D+04 9.882316589355D-01 2.793967723846D-09 0.000000000000D+00
 9 22  4 16  5 45  0.0 5.005113780499D-05 1.818989403546D-12 1.980000000000D+04
   -9.425234375000D+02-1.829694747925D+00 0.000000000000D+00 0.000000000000D+00
    1.565718212891D+04 2.053564071655D+00 4.656612873077D-09-2.000000000000D+00
    2.010571777344D+04-1.692872047424D+00-9.313225746155D-10 0.000000000000D+00
19 22  4 16  5 45  0.0-1.855492591858D-04-9.094947017729D-13 1.980000000000D+04
   -4.206752929688D+03-4.537220001221D-01 0.000000000000D+00 0.000000000000D+00
    1.709080175781D+04-2.497138023376D+00 4.656612873077D-09 3.000000000000D+00
    1.845797314453D+04 2.208620071411D+00-9.313225746155D-10 0.000000000000D+00
20 22  4 16  5 45  0.0-6.871949881315D-05-9.094947017729D-13 1.980000000000D+04
    5.914591796875D+03 2.375783920288D-01-0.000000000000D+00 0.000000000000D+00
    2.478436572266D+04-1.061029434204D-01 5.587935447693D-09 2.000000000000D+00
    3.432739257812D+02 3.617855072021D+00 9.313225746155D-10 0.000000000000D+00
21 22  4 16  5 45  0.0-2.936944365501D-04-2.728484105319D-12 2.010000000000D+04
    1.208647949219D+04 7.970781326294D-01-9.313225746155D-10 0.000000000000D+00
    1.397789746094D+04 2.281483650208D+00 2.793967723846D-09 4.000000000000D+00
   -1.759728906250D+04 2.358324050903D+00 2.793967723846D-09 0.000000000000D+00
15 22  4 16  6 15  0.0 9.679608047009D-05-0.000000000000D+00 2.160000000000D+04
   -1.689539355469D+04 1.409646034241D+00 1.862645149231D-09 0.000000000000D+00
    9.822146972656D+03-1.750930786133D+00 9.313225746155D-10 0.000000000000D+00
   -1.637735009766D+04-2.501914024353D+00 1.862645149231D-09 0.000000000000D+00
 9 22  4 16  6 15  0.0 5.005206912756D-05 1.818989403546D-12 2.160000000000D+04
   -3.700750488281D+03-1.227642059326D+00 9.313225746155D-10 0.000000000000D+00
    1.922751953125D+04 1.866772651672D+00 4.656612873077D-09-2.000000000000D+00
    1.631975488281D+04-2.486578941345D+00-9.313225746155D-10 0.000000000000D+00
19 22  4 16  6 15  0.0-1.855520531535D-04-9.094947017729D-13 2.160000000000D+04
   -5.505444335938D+03-9.954195022583D-01 9.313225746155D-10 0.000000000000D+00
    1.227437500000D+04-2.803577423096D+00 3.725290298462D-09 3.000000000000D+00
    2.166833544922D+04 1.335294723511D+00-1.862645149231D-09 0.000000000000D+00
20 22  4 16  6 15  0.0-6.872136145830D-05-9.094947017729D-13 2.160000000000D+04
    6.065137695312D+03-1.083269119263D-01 0.000000000000D+00 0.000000000000D+00
    2.381225195312D+04-9.533023834229D-01 5.587935447693D-09 2.000000000000D+00
    6.757711425781D+03 3.462881088257D+00 0.000000000000D+00 0.000000000000D+00
21 22  4 16  6 15  0.0-2.936990931630D-04-2.728484105319D-12 2.160000000000D+04
    1.362281542969D+04 8.681821823120D-01-0.000000000000D+00 0.000000000000D+00
    1.742483203125D+04 1.525980949402D+00 4.656612873077D-09 4.000000000000D+00
   -1.272756591797D+04 3.017380714417D+00 1.862645149231D-09 0.000000000000D+00
 5 22  4 16  6 15  0.0 9.124074131250D-05 9.094947017729D-13 2.310000000000D+04
   -1.451767675781D+04-2.678011894226D+00 1.862645149231D-09 0.000000000000D+00
    7.496536132812D+03-2.193908691406D-01 0.000000000000D+00 1.000000000000D+00
   -1.957889257812D+04 1.898040771484D+00 2.793967723846D-09 0.000000000000D+00
15 22  4 16  6 45  0.0 9.679514914751D-05-0.000000000000D+00 2.340000000000D+04
   -1.433833496094D+04 1.388883590698D+00 1.862645149231D-09 0.000000000000D+00
    6.071000488281D+03-2.394989013672D+00-0.000000000000D+00 0.000000000000D+00
   -2.018862500000D+04-1.705280303955D+00 2.793967723846D-09 0.000000000000D+00
 5 22  4 16  6 45  0.0 9.124260395765D-05 9.094947017729D-13 2.340000000000D+04
   -1.887026464844D+04-2.116889953613D+00 2.793967723846D-09 0.000000000000D+00
    7.469909667969D+03 1.653537750244D-01-0.000000000000D+00 1.000000000000D+00
   -1.544924462891D+04 2.660582542419D+00 1.862645149231D-09 0.000000000000D+00
 9 22  4 16  6 45  0.0 5.005579441786D-05 1.818989403546D-12 2.340000000000D+04
   -5.368416992188D+03-6.360149383545D-01 1.862645149231D-09 0.000000000000D+00
    2.221338037109D+04 1.407858848572D+00 4.656612873077D-09-2.000000000000D+00
    1.126938916016D+04-3.088521003723D+00-0.000000000000D+00 0.000000000000D+00
20 22  4 16  6 45  0.0-6.872322410345D-05-9.094947017729D-13 2.340000000000D+04
    5.407553222656D+03-6.480770111084D-01 9.313225746155D-10 0.000000000000D+00
    2.145829492188D+04-1.625145912170D+00 5.587935447693D-09 2.000000000000D+00
    1.264820068359D+04 3.039532661438D+00-0.000000000000D+00 0.000000000000D+00
21 22  4 16  6 45  0.0-2.937046810985D-04-2.728484105319D-12 2.340000000000D+04
    1.505371875000D+04 6.771574020386D-01 0.000000000000D+00 0.000000000000D+00
    1.942532958984D+04 6.939458847046D-01 4.656612873077D-09 4.000000000000D+00
   -6.874902343750D+03 3.443403244019D+00 9.313225746155D-10 0.000000000000D+00
10 22  4 16  6 45  0.0-8.153915405273D-05-0.000000000000D+00 2.415000000000D+04
    5.104565917969D+03-1.340874671936D+00 9.313225746155D-10 0.000000000000D+00
    1.249675146484D+04 2.644606590271D+00 3.725290298462D-09-7.000000000000D+00
    2.164762744141D+04-1.203007698059D+00-1.862645149231D-09 0.000000000000D+00
10 22  4 16  7 15  0.0-8.154474198818D-05-0.000000000000D+00 2.520000000000D+04
    3.172099609375D+03-8.049335479736D-01 1.862645149231D-09 0.000000000000D+00
    1.710645849609D+04 2.428025245667D+00 4.656612873077D-09-7.000000000000D+00
    1.867411962891D+04-2.079282760620D+00-9.313225746155D-10 0.000000000000D+00
 9 22  4 16  7 15  0.0 5.005858838558D-05 1.818989403546D-12 2.520000000000D+04
   -6.058277343750D+03-1.567153930664D-01 3.725290298462D-09 0.000000000000D+00
    2.415817187500D+04 7.208414077759D-01 3.725290298462D-09-2.000000000000D+00
    5.344895996094D+03-3.451395988464D+00 0.000000000000D+00 0.000000000000D+00
20 22  4 16  7 15  0.0-6.872508674860D-05-9.094947017729D-13 2.520000000000D+04
    3.669160156250D+03-1.291914939880D+00 1.862645149231D-09 0.000000000000D+00
    1.811598681641D+04-2.041326522827D+00 4.656612873077D-09 2.000000000000D+00
    1.755854638672D+04 2.380990982056D+00-9.313225746155D-10 0.000000000000D+00
21 22  4 16  7 15  0.0-2.937102690339D-04-2.728484105319D-12 2.520000000000D+04
    1.590656054688D+04 2.309761047363D-01 9.313225746155D-10 0.000000000000D+00
    1.994849121094D+04-9.602069854736D-02 5.587935447693D-09 4.000000000000D+00
   -4.912832031250D+02 3.603502273560D+00 9.313225746155D-10 0.000000000000D+00
